IRIDIUM 155             
1 43573U 18061E   22225.57780820  .00000152  00000+0  47199-4 0  9999
2 43573  86.3945 283.2502 0001969  93.3411 266.8010 14.34216831212176
IRIDIUM 154             
1 43574U 18061F   22225.55878859  .00000156  00000+0  48744-4 0  9999
2 43574  86.3949 283.3243 0002528  88.7810 271.3675 14.34219253212222
IRIDIUM 163             
1 43575U 18061G   22225.53976207  .00000154  00000+0  47853-4 0  9992
2 43575  86.3946 283.2908 0002546  99.5126 260.6357 14.34219106212198
IRIDIUM 156             
1 43576U 18061H   22225.58416862  .00000157  00000+0  49090-4 0  9992
2 43576  86.3946 283.2777 0002218 100.8173 259.3272 14.34218422212198
IRIDIUM 164             
1 43577U 18061J   22225.56512845  .00000155  00000+0  48268-4 0  9993
2 43577  86.3947 283.3044 0002558  91.7079 268.4409 14.34219511212236
IRIDIUM 159             
1 43578U 18061K   22225.53342081  .00000155  00000+0  48316-4 0  9998
2 43578  86.3946 283.2841 0002471  90.4652 269.6827 14.34217259212196
IRIDIUM 180             
1 43922U 19002A   22225.53290591  .00000086  00000+0  23745-4 0  9997
2 43922  86.3970 220.1497 0002883  86.4418 273.7108 14.34217871187802
IRIDIUM 176             
1 43923U 19002B   22225.48986739  .00000212  00000+0  29667-4 0  9998
2 43923  86.6105 220.2036 0002526  89.6425 270.5082 14.72249431192725
IRIDIUM 168             
1 43924U 19002C   22225.52656601  .00000084  00000+0  22763-4 0  9993
2 43924  86.3972 220.1900 0002503  84.6712 275.4769 14.34217997187789
IRIDIUM 173             
1 43925U 19002D   22225.51388530  .00000090  00000+0  25001-4 0  9991
2 43925  86.3969 220.1416 0002523  87.2212 272.9273 14.34217535187762
IRIDIUM 169             
1 43926U 19002E   22225.54724502  .00000162  00000+0  46454-4 0  9993
2 43926  86.4193 251.7180 0002255 300.1010  59.9965 14.38602551188421
IRIDIUM 172             
1 43927U 19002F   22225.50754534  .00000089  00000+0  24880-4 0  9995
2 43927  86.3970 220.1479 0002582  86.3494 273.7997 14.34218371187774
IRIDIUM 175             
1 43928U 19002G   22225.48372157  .00000208  00000+0  29104-4 0  9997
2 43928  86.6108 220.0383 0002577  86.5163 273.6349 14.72255854192712
IRIDIUM 171             
1 43929U 19002H   22225.48851181  .00000087  00000+0  23919-4 0  9990
2 43929  86.3978 220.3061 0002483  84.2043 275.9436 14.34216857187768
IRIDIUM 170             
1 43930U 19002J   22225.49605924  .00000215  00000+0  30138-4 0  9999
2 43930  86.6105 220.2064 0002389  86.3520 273.7970 14.72250747192735
IRIDIUM 167             
1 43931U 19002K   22225.48216651  .00000088  00000+0  24521-4 0  9991
2 43931  86.3970 220.1684 0002705  85.7267 274.4238 14.34218109187769
